OBJECT_NAME,OBJECT_ID,EPOCH,MEAN_MOTION,ECCENTRICITY,INCLINATION,RA_OF_ASC_NODE,ARG_OF_PERICENTER,MEAN_ANOMALY,EPHEMERIS_TYPE,CLASSIFICATION_TYPE,NORAD_CAT_ID,ELEMENT_SET_NO,REV_AT_EPOCH,BSTAR,MEAN_MOTION_DOT,MEAN_MOTION_DDOT
INTELSAT 21 (IS-21),2012-045A,2026-06-11T12:58:09.753024,1.00272424,.0001321,0.0188,289.0635,163.5253,303.8368,0,U,38749,999,5046,0,-.268E-5,0
INTELSAT 23 (IS-23),2012-057A,2026-06-11T08:58:38.870400,1.00268413,.0000038,0.0140,307.2279,196.2343,197.9213,0,U,38867,999,4989,0,-.268E-5,0
FM-6,2013-058A,2026-06-10T22:01:38.563680,1.00268329,.00016818,0.0114,47.7834,116.7333,308.7742,0,U,39360,999,4601,0,.2E-7,0
INTELSAT 30 (IS-30),2014-062A,2026-06-11T14:30:16.755840,1.00277984,.0001227,0.0279,49.7090,329.1224,3.6301,0,U,40271,999,673,0,-.135E-5,0
DIRECTV 14,2014-078B,2026-06-10T06:23:38.662080,1.00270829,.00001882,0.0092,5.4718,266.0574,343.7738,0,U,40333,999,4197,0,-.108E-5,0
DIRECTV 15,2015-026A,2026-06-11T16:10:42.830112,1.00269288,.0000635,0.0180,10.3830,273.8943,115.5426,0,U,40663,999,4040,0,-.86E-6,0
SKY MEXICO-1,2015-026B,2026-06-11T12:52:17.814720,1.00270302,.0002093,0.0185,327.3821,135.5940,271.1791,0,U,40664,999,4039,0,-.217E-5,0
INTELSAT 34 (IS-34),2015-039A,2026-06-11T07:50:51.821088,1.00269705,.000032,0.0095,328.8375,355.2995,357.7670,0,U,40874,999,3957,0,-.268E-5,0
INTELSAT 31 (IS-31),2016-035A,2026-06-11T09:26:38.883840,1.00265308,.0001173,0.0157,269.5777,342.3621,54.4174,0,U,41581,999,3662,0,-.133E-5,0
INTELSAT 36 (IS-36),2016-053A,2026-06-11T18:42:14.150016,1.00272652,.0001733,0.0125,9.1974,322.6867,277.2852,0,U,41747,999,3590,0,-.8E-7,0
INTELSAT 32E (IS-32E),2017-007B,2026-06-11T19:53:04.114176,1.00267656,.0000599,0.0170,335.0320,303.7892,236.4396,0,U,41945,999,3417,0,-.253E-5,0
INTELSAT 35E (IS-35E),2017-041A,2026-06-11T16:30:10.964160,1.00268855,.0001539,0.0257,337.8415,98.2517,36.9969,0,U,42818,999,3276,0,0,0
INTELSAT 37E (IS-37E),2017-059A,2026-06-11T18:17:32.051328,1.00272898,.000241,0.0171,18.3283,80.3310,57.8288,0,U,42950,999,3201,0,-.124E-5,0
AZERSPACE 2 (IS-38),2018-074A,2026-06-11T03:11:40.360992,1.00271976,.00011981,0.0036,69.3548,12.8510,270.3100,0,U,43632,999,2838,0,.154E-5,0
HORIZONS-3E,2018-074B,2026-06-11T15:45:37.736064,1.00270916,.0000942,0.0168,153.8582,115.9640,35.5804,0,U,43633,999,2828,0,-.14E-6,0
AT&T T-16,2019-034A,2026-06-11T16:11:20.272416,1.00271431,.0000684,0.0236,64.6927,225.1191,112.1847,0,U,44333,999,2557,0,-.99E-6,0
INTELSAT 39 (IS-39),2019-049B,2026-06-10T22:34:08.694624,1.00269836,.00010821,0.0255,336.9481,329.3092,353.5144,0,U,44476,999,2506,0,0,0
GALAXY 30 (G-30),2020-056C,2026-06-11T16:04:20.942112,1.00270074,.0002095,0.0016,14.0582,71.7827,290.2690,0,U,46114,999,2123,0,.54E-6,0
GALAXY 33 (G-33),2022-128A,2026-06-11T17:44:44.439936,1.00270185,.0001667,0.0068,328.0284,116.5773,308.6720,0,U,54026,999,1368,0,.96E-6,0
GALAXY 34 (G-34),2022-128B,2026-06-11T16:03:13.549248,1.00273054,.0001576,0.0219,345.5528,108.0855,278.1799,0,U,54027,999,1385,0,0,0
GALAXY 31 (G-31),2022-153A,2026-06-11T16:05:28.334112,1.00270115,.000113,0.0180,295.7377,136.8388,307.8081,0,U,54243,999,707,0,.3E-6,0
GALAXY 32 (G-32),2022-153B,2026-06-11T12:48:48.151296,1.00271889,.0002088,0.0099,2.4088,31.9937,326.6811,0,U,54244,999,1308,0,-.158E-5,0
GALAXY 35 (G-35),2022-170A,2026-06-11T14:30:46.708128,1.00270834,.0001889,0.0155,296.8943,146.7176,300.9339,0,U,54741,999,1283,0,-.145E-5,0
GALAXY 36 (G-36),2022-170B,2026-06-11T14:32:01.590144,1.00271833,.0002574,0.0360,125.6767,316.8090,306.4760,0,U,54742,999,1271,0,-.169E-5,0
GALAXY 37 (G-37),2023-112A,2026-06-11T16:03:50.988960,1.00270650,.0001827,0.0164,13.6173,65.4944,294.8664,0,U,57493,999,1048,0,.65E-6,0
